NORAD_CAT_ID,OBJECT_NAME,OBJECT_TYPE,EPOCH,MEAN_MOTION,ECCENTRICITY,INCLINATION,RA_OF_ASC_NODE,ARG_OF_PERICENTER,MEAN_ANOMALY,BSTAR,MEAN_MOTION_DOT,MEAN_MOTION_DDOT,TLE_LINE0,TLE_LINE1,TLE_LINE2,SEMIMAJOR_AXIS,PERIOD,APOGEE,PERIGEE,DECAYED
52090.0,STARLINK-3712,PAYLOAD,2022-03-22 16:00:00,15.83639316,0.0001392,53.2172,127.1286,314.5712,91.9613,-0.0043676,-0.00887672,0.0,0 STARLINK-3712,1 52090U 22029C   22081.66667824 -.00887672  00000-0 -43676-2 0  9997,2 52090  53.2172 127.1286 0001392 314.5712  91.9613 15.83639316  1806,6698.295999999999,90.93,321.093,319.228,0.0
52090.0,STARLINK-3712,PAYLOAD,2022-03-23 12:00:00,15.82058416,0.0001307,53.2174,122.946,48.9864,68.8291,-0.0046339,-0.00874952,0.0,0 STARLINK-3712,1 52090U 22029C   22082.50001157 -.00874952  00000-0 -46339-2 0  9998,2 52090  53.2174 122.9460 0001307  48.9864  68.8291 15.82058416  1931,6702.757,91.021,325.498,323.746,0.0
52090.0,STARLINK-3712,PAYLOAD,2022-03-23 14:00:01,15.81899573,0.0001273,53.2172,122.5282,54.5056,178.1784,-0.004652,-0.00872108,0.0,0 STARLINK-3712,1 52090U 22029C   22082.58334491 -.00872108  00000-0 -46520-2 0  9999,2 52090  53.2172 122.5282 0001273  54.5056 178.1784 15.81899573  1461,6703.206,91.03,325.9240000000001,324.218,0.0
52090.0,STARLINK-3712,PAYLOAD,2022-03-23 22:00:00,15.81272347,0.0001066,53.2174,120.856,54.5612,277.1233,-0.0048144,-0.00875929,0.0,0 STARLINK-3712,1 52090U 22029C   22082.91667824 -.00875929  00000-0 -48144-2 0  9993,2 52090  53.2174 120.8560 0001066  54.5612 277.1233 15.81272347  1510,6704.979,91.066,327.558,326.129,0.0
52090.0,STARLINK-3712,PAYLOAD,2022-03-24 04:00:00,15.80802972,0.0001261,53.2176,119.6045,47.8264,267.6104,-0.0049406999999999,-0.00879185,0.0,0 STARLINK-3712,1 52090U 22029C   22083.16667824 -.00879185  00000-0 -49407-2 0  9992,2 52090  53.2176 119.6045 0001261  47.8264 267.6104 15.80802972  2032,6706.306,91.093,329.016,327.325,0.0
52090.0,STARLINK-3712,PAYLOAD,2022-03-24 14:00:01,15.80012096,0.0001178,53.2173,117.5223,63.5917,103.8229,-0.0050795,-0.00872077,0.0,0 STARLINK-3712,1 52090U 22029C   22083.58334491 -.00872077  00000-0 -50795-2 0  9994,2 52090  53.2173 117.5223 0001178  63.5917 103.8229 15.80012096  1624,6708.543000000002,91.139,331.199,329.61800000000005,0.0
52090.0,STARLINK-3712,PAYLOAD,2022-03-24 22:00:00,15.79384088,0.0001200999999999,53.2174,115.8547,57.1453,207.0013,-0.0052427,-0.00874251,0.0,0 STARLINK-3712,1 52090U 22029C   22083.91667824 -.00874251  00000-0 -52427-2 0  9990,2 52090  53.2174 115.8547 0001201  57.1453 207.0013 15.79384088  2154,6710.321999999999,91.175,332.99300000000005,331.381,0.0
52090.0,STARLINK-3712,PAYLOAD,2022-03-25 14:00:01,15.78126258,0.0001145,53.2171,112.5305,54.8662,40.4723,-0.0055553999999999,-0.00874722,0.0,0 STARLINK-3712,1 52090U 22029C   22084.58334491 -.00874722  00000-0 -55554-2 0  9992,2 52090  53.2171 112.5305 0001145  54.8662  40.4723 15.78126258  1787,6713.887,91.247,336.52,334.983,0.0
52090.0,STARLINK-3712,PAYLOAD,2022-03-25 20:00:01,15.77653584,0.0001271,53.2175,111.2831,43.2761,32.9815,-0.0056672,-0.0087363,0.0,0 STARLINK-3712,1 52090U 22029C   22084.83334491 -.00873630  00000-0 -56672-2 0  9999,2 52090  53.2175 111.2831 0001271  43.2761  32.9815 15.77653584  2306,6715.228,91.275,337.946,336.2390000000001,0.0
52090.0,STARLINK-3712,PAYLOAD,2022-03-25 22:00:01,15.77495812,0.0001351,53.2173,110.8674,50.9745,138.894,-0.0057005,-0.00872671,0.0,0 STARLINK-3712,1 52090U 22029C   22084.91668981 -.00872671  00000-0 -57005-2 0  9997,2 52090  53.2173 110.8674 0001351  50.9745 138.8940 15.77495812  1830,6715.675,91.284,338.4480000000001,336.6330000000001,0.0
52090.0,STARLINK-3712,PAYLOAD,2022-03-26 12:00:00,15.76393299,0.0001367,53.2176,107.9671,49.5988,213.6928,-0.0059736,-0.00870654,0.0,0 STARLINK-3712,1 52090U 22029C   22085.50001157 -.00870654  00000-0 -59736-2 0  9991,2 52090  53.2176 107.9671 0001367  49.5988 213.6928 15.76393299  2404,6718.806,91.348,341.59,339.7530000000001,0.0
52090.0,STARLINK-3712,PAYLOAD,2022-03-26 14:00:01,15.76239219,0.0001076,53.2172,107.5524,55.1565,321.3004,-0.0060478,-0.00874894,0.0,0 STARLINK-3712,1 52090U 22029C   22085.58334491 -.00874894  00000-0 -60478-2 0  9994,2 52090  53.2172 107.5524 0001076  55.1565 321.3004 15.76239219  1945,6719.244000000002,91.357,341.832,340.386,0.0
52090.0,STARLINK-3712,PAYLOAD,2022-03-26 22:00:00,15.75608164,0.0001375999999999,53.2172,105.8942,41.971,66.682,-0.0062041,-0.00873044,0.0,0 STARLINK-3712,1 52090U 22029C   22085.91667824 -.00873044  00000-0 -62041-2 0  9994,2 52090  53.2172 105.8942 0001376  41.9710  66.6820 15.75608164  1996,6721.038000000001,91.393,343.82800000000015,341.978,0.0
52090.0,STARLINK-3712,PAYLOAD,2022-03-27 04:00:00,15.75137901,0.0001486,53.2175,104.654,37.0243,50.2768,-0.0063536,-0.00875506,0.0,0 STARLINK-3712,1 52090U 22029C   22086.16667824 -.00875506  00000-0 -63536-2 0  9997,2 52090  53.2175 104.6540 0001486  37.0243  50.2768 15.75137901  2514,6722.376,91.421,345.24,343.242,0.0
52090.0,STARLINK-3712,PAYLOAD,2022-03-27 14:00:01,15.743519,0.0001131,53.2172,102.5884,64.1422,226.6277,-0.0065774,-0.00875517,0.0,0 STARLINK-3712,1 52090U 22029C   22086.58334491 -.00875517  00000-0 -65774-2 0  9992,2 52090  53.2172 102.5884 0001131  64.1422 226.6277 15.74351900  2101,6724.613,91.466,347.23900000000015,345.718,0.0
52090.0,STARLINK-3712,PAYLOAD,2022-03-27 22:00:01,15.73587903,0.0001174,53.2173,100.9347,50.93899999999999,329.8487,-0.0038689,-0.00519926,0.0,0 STARLINK-3712,1 52090U 22029C   22086.91668981 -.00519926  00000-0 -38689-2 0  9997,2 52090  53.2173 100.9347 0001174  50.9390 329.8487 15.73587903  2159,6726.7890000000025,91.511,349.444,347.865,0.0
52090.0,STARLINK-3712,PAYLOAD,2022-03-28 04:00:00,15.73208337,0.0001458,53.2177,99.6981,43.4958,314.1513,-5.549e-05,-8.403e-05,0.0,0 STARLINK-3712,1 52090U 22029C   22087.16667824 -.00008403  00000-0 -55490-4 0  9994,2 52090  53.2177  99.6981 0001458  43.4958 314.1513 15.73208337  2667,6727.871,91.533,350.717,348.755,0.0
52090.0,STARLINK-3712,PAYLOAD,2022-03-28 14:00:01,15.73244008,0.0001431,53.2166,97.6376,51.6028,147.4234,-0.0002018,-0.00028898,0.0,0 STARLINK-3712,1 52090U 22029C   22087.58335648 -.00028898  00000-0 -20180-3 0  9993,2 52090  53.2166  97.6376 0001431  51.6028 147.4234 15.73244008  2731,6727.77,91.531,350.597,348.672,0.0
52090.0,STARLINK-3712,PAYLOAD,2022-03-28 22:00:00,15.73251989,0.000115,53.2166,95.9863,51.1935,236.746,-0.00032683,-0.00046337,0.0,0 STARLINK-3712,1 52090U 22029C   22087.91667824 -.00046337  00000-0 -32683-3 0  9993,2 52090  53.2166  95.9863 0001150  51.1935 236.7460 15.73251989  2316,6727.746999999999,91.53,350.386,348.838,0.0
52090.0,STARLINK-3712,PAYLOAD,2022-03-29 14:00:01,15.73150248,0.0001272,53.2164,92.689,42.1581,63.6669,0.00018852,0.00025863,0.0,0 STARLINK-3712,1 52090U 22029C   22088.58334491  .00025863  00000-0  18852-3 0  9999,2 52090  53.2164  92.6890 0001272  42.1581  63.6669 15.73150248  2415,6728.0369999999975,91.536,350.7580000000001,349.046,0.0
52090.0,STARLINK-3712,PAYLOAD,2022-03-29 20:00:01,15.7311339,0.0001105,53.2168,91.4502,47.5846,34.8903,0.00046569,0.00065,0.0,0 STARLINK-3712,1 52090U 22029C   22088.83334491  .00065000  00000-0  46569-3 0  9990,2 52090  53.2168  91.4502 0001105  47.5846  34.8903 15.73113390  2939,6728.142,91.538,350.751,349.264,0.0
52090.0,STARLINK-3712,PAYLOAD,2022-03-29 22:00:00,15.73120233,0.0001117,53.2167,91.0375,49.111,145.5741,0.00049374,0.00069006,0.0,0 STARLINK-3712,1 52090U 22029C   22088.91667824  .00069006  00000-0  49374-3 0  9995,2 52090  53.2167  91.0375 0001117  49.1110 145.5741 15.73120233  2470,6728.123000000001,91.538,350.73900000000015,349.236,0.0
52090.0,STARLINK-3712,PAYLOAD,2022-03-30 04:00:00,15.7325074,0.0001202,53.2171,89.8015,49.8585,121.5329,-2.7648e-05,-4.507e-05,0.0,0 STARLINK-3712,1 52090U 22029C   22089.16667824 -.00004507  00000-0 -27648-4 0  9991,2 52090  53.2171  89.8015 0001202  49.8585 121.5329 15.73250740  2988,6727.751,91.53,350.4240000000001,348.807,0.0
52090.0,STARLINK-3712,PAYLOAD,2022-03-30 14:00:01,15.73244013,0.0001183,53.2166,87.7399,39.9914,332.6821,-0.00037031,-0.00052365,0.0,0 STARLINK-3712,1 52090U 22029C   22089.58335648 -.00052365  00000-0 -37031-3 0  9994,2 52090  53.2166  87.7399 0001183  39.9914 332.6821 15.73244013  2571,6727.77,91.531,350.431,348.839,0.0
52090.0,STARLINK-3712,PAYLOAD,2022-03-30 22:00:00,15.7324159,0.0001139,53.2166,86.0888,54.8827,46.6631,0.00063418,0.00089495,0.0,0 STARLINK-3712,1 52090U 22029C   22089.91667824  .00089495  00000-0  63418-3 0  9995,2 52090  53.2166  86.0888 0001139  54.8827  46.6631 15.73241590  2631,6727.776999999999,91.531,350.408,348.875,0.0
52090.0,STARLINK-3712,PAYLOAD,2022-03-31 12:00:00,15.73190413,0.0001389,53.2164,83.2039,51.9545,115.3891,6.3163e-05,8.25e-05,0.0,0 STARLINK-3712,1 52090U 22029C   22090.50001157  .00008250  00000-0  63163-4 0  9991,2 52090  53.2164  83.2039 0001389  51.9545 115.3891 15.73190413  3199,6727.9230000000025,91.534,350.722,348.853,0.0
52090.0,STARLINK-3712,PAYLOAD,2022-03-31 14:00:01,15.73196006,0.00013,53.2165,82.7908,53.2273,226.3462,-3.7567e-05,-5.887e-05,0.0,0 STARLINK-3712,1 52090U 22029C   22090.58334491 -.00005887  00000-0 -37567-4 0  9993,2 52090  53.2165  82.7908 0001300  53.2273 226.3462 15.73196006  2735,6727.906999999997,91.533,350.646,348.897,0.0
52090.0,STARLINK-3712,PAYLOAD,2022-03-31 22:00:00,15.73174657,0.0001088,53.2169,81.1395,62.1384,306.3791,0.00052169,0.00073155,0.0,0 STARLINK-3712,1 52090U 22029C   22090.91667824  .00073155  00000-0  52169-3 0  9994,2 52090  53.2169  81.1395 0001088  62.1384 306.3791 15.73174657  2784,6727.967,91.535,350.564,349.1,0.0
52090.0,STARLINK-3712,PAYLOAD,2022-04-01 04:00:01,15.73257452,0.0001181,53.2171,79.9038,54.2824,290.9937,-0.00015004,-0.00021674,0.0,0 STARLINK-3712,1 52090U 22029C   22091.16668981 -.00021674  00000-0 -15004-3 0  9995,2 52090  53.2171  79.9038 0001181  54.2824 290.9937 15.73257452  3293,6727.731,91.53,350.391,348.802,0.0
